$$SOE
2459580.500000000, A.D. 2022-Jan-01 00:00:00.0000, 1.165676911482375E+08, 3.320336610876458E+08, -2.572955899703166E+07,
2459587.500000000, A.D. 2022-Jan-08 00:00:00.0000, 1.056155673020471E+08, 3.350895248662783E+08, -2.517293196140732E+07,
2459594.500000000, A.D. 2022-Jan-15 00:00:00.0000, 9.454611654351139E+07, 3.377731730714958E+08, -2.458834379361703E+07,
2459601.500000000, A.D. 2022-Jan-22 00:00:00.0000, 8.337107837404346E+07, 3.400796256472885E+08, -2.397629875243533E+07,
2459608.500000000, A.D. 2022-Jan-29 00:00:00.0000, 7.210242044979598E+07, 3.420042067450266E+08, -2.333733239327703E+07,
2459615.500000000, A.D. 2022-Feb-05 00:00:00.0000, 6.075233370614408E+07, 3.435425546739231E+08, -2.267201182091904E+07,
2459622.500000000, A.D. 2022-Feb-12 00:00:00.0000, 4.933322923487525E+07, 3.446906312251721E+08, -2.198093622379556E+07,
2459629.500000000, A.D. 2022-Feb-19 00:00:00.0000, 3.785773554773487E+07, 3.454447327356111E+08, -2.126473737242275E+07,
2459636.500000000, A.D. 2022-Feb-26 00:00:00.0000, 2.633869486693154E+07, 3.458015021557141E+08, -2.052408001667486E+07,
2459643.500000000, A.D. 2022-Mar-05 00:00:00.0000, 1.478915855021024E+07, 3.457579414928166E+08, -1.975966224277353E+07,
2459650.500000000, A.D. 2022-Mar-12 00:00:00.0000, 3.222381820013058E+06, 3.453114245503408E+08, -1.897221581171574E+07,
2459657.500000000, A.D. 2022-Mar-19 00:00:00.0000, -8.348182185347431E+06, 3.444597099742503E+08, -1.816250647922564E+07,
2459664.500000000, A.D. 2022-Mar-26 00:00:00.0000, -1.990888907032617E+07, 3.432009545799525E+08, -1.733133429533105E+07,
2459671.500000000, A.D. 2022-Apr-02 00:00:00.0000, -3.144591053815320E+07, 3.415337268784525E+08, -1.647953388954403E+07,
2459678.500000000, A.D. 2022-Apr-09 00:00:00.0000, -4.294524222879081E+07, 3.394570207764336E+08, -1.560797476099566E+07,
2459685.500000000, A.D. 2022-Apr-16 00:00:00.0000, -5.439271173999464E+07, 3.369702700703409E+08, -1.471756154739645E+07,
2459692.500000000, A.D. 2022-Apr-23 00:00:00.0000, -6.577398815805737E+07, 3.340733647829386E+08, -1.380923406271110E+07,
2459699.500000000, A.D. 2022-Apr-30 00:00:00.0000, -7.707459502034673E+07, 3.307666670506132E+08, -1.288396710957308E+07,
2459706.500000000, A.D. 2022-May-07 00:00:00.0000, -8.827992370410320E+07, 3.270510245250990E+08, -1.194277050030805E+07,
2459713.500000000, A.D. 2022-May-14 00:00:00.0000, -9.937524591591462E+07, 3.229277842726485E+08, -1.098668915902446E+07,
2459720.500000000, A.D. 2022-May-21 00:00:00.0000, -1.103457273661698E+08, 3.183988078715161E+08, -1.001680305062899E+07,
2459727.500000000, A.D. 2022-May-28 00:00:00.0000, -1.211764431572270E+08, 3.134664866751062E+08, -9.034226963623390E+06,
2459734.500000000, A.D. 2022-Jun-04 00:00:00.0000, -1.318523946584658E+08, 3.081337568463811E+08, -8.040110189649209E+06,
2459741.500000000, A.D. 2022-Jun-11 00:00:00.0000, -1.423585277709114E+08, 3.024041140783620E+08, -7.035636104915187E+06,
2459748.500000000, A.D. 2022-Jun-18 00:00:00.0000, -1.526797525856557E+08, 2.962816279196061E+08, -6.022021647950962E+06,
2459755.500000000, A.D. 2022-Jun-25 00:00:00.0000, -1.628009644442993E+08, 2.897709555694007E+08, -5.000516690970466E+06,
2459762.500000000, A.D. 2022-Jul-02 00:00:00.0000, -1.727070662989069E+08, 2.828773549669002E+08, -3.972403314306557E+06,
2459769.500000000, A.D. 2022-Jul-09 00:00:00.0000, -1.823829920058936E+08, 2.756066972329770E+08, -2.938994997012749E+06,
2459776.500000000, A.D. 2022-Jul-16 00:00:00.0000, -1.918137306273860E+08, 2.679654794221349E+08, -1.901635622025043E+06,
2459783.500000000, A.D. 2022-Jul-23 00:00:00.0000, -2.009843539501380E+08, 2.599608375339750E+08, -8.616980805748254E+05,
2459790.500000000, A.D. 2022-Jul-30 00:00:00.0000, -2.098800471325070E+08, 2.516005562963861E+08, 1.794172495479733E+05,
2459797.500000000, A.D. 2022-Aug-06 00:00:00.0000, -2.184861388600124E+08, 2.428930762149586E+08, 1.220283883198306E+06,
2459804.500000000, A.D. 2022-Aug-13 00:00:00.0000, -2.267881318144586E+08, 2.338475004882262E+08, 2.259450771982491E+06,
2459811.500000000, A.D. 2022-Aug-20 00:00:00.0000, -2.347717349936955E+08, 2.244736011392340E+08, 3.295444121019781E+06,
2459818.500000000, A.D. 2022-Aug-27 00:00:00.0000, -2.424228977595696E+08, 2.147818234839852E+08, 4.326769417778045E+06,
2459825.500000000, A.D. 2022-Sep-03 00:00:00.0000, -2.497278452955051E+08, 2.047832886690348E+08, 5.351913645666316E+06,
2459832.500000000, A.D. 2022-Sep-10 00:00:00.0000, -2.566731152935455E+08, 1.944897941451716E+08, 6.369347679422438E+06,
2459839.500000000, A.D. 2022-Sep-17 00:00:00.0000, -2.632455957280892E+08, 1.839138119165098E+08, 7.377528861675404E+06,
2459846.500000000, A.D. 2022-Sep-24 00:00:00.0000, -2.694325635219178E+08, 1.730684843503871E+08, 8.374903751861960E+06,
2459853.500000000, A.D. 2022-Oct-01 00:00:00.0000, -2.752217237184312E+08, 1.619676173609788E+08, 9.359911022692442E+06,
2459860.500000000, A.D. 2022-Oct-08 00:00:00.0000, -2.806012485994608E+08, 1.506256713339843E+08, 1.033098450629439E+07,
2459867.500000000, A.D. 2022-Oct-15 00:00:00.0000, -2.855598175155917E+08, 1.390577508560048E+08, 1.128655656816717E+07,
2459874.500000000, A.D. 2022-Oct-22 00:00:00.0000, -2.900866594279857E+08, 1.272795914508132E+08, 1.222506186420295E+07,
2459881.500000000, A.D. 2022-Oct-29 00:00:00.0000, -2.941715954524075E+08, 1.153075406346657E+08, 1.314494103117356E+07,
2459888.500000000, A.D. 2022-Nov-05 00:00:00.0000, -2.978050790585369E+08, 1.031585359430168E+08, 1.404464433232318E+07,
2459895.500000000, A.D. 2022-Nov-12 00:00:00.0000, -3.009782356317501E+08, 9.085008111323182E+07, 1.492263552924641E+07,
2459902.500000000, A.D. 2022-Nov-19 00:00:00.0000, -3.036829018574924E+08, 7.840021941477105E+07, 1.577739595284087E+07,
2459909.500000000, A.D. 2022-Nov-26 00:00:00.0000, -3.059116643898554E+08, 6.582750370404413E+07, 1.660742869995038E+07,
2459916.500000000, A.D. 2022-Dec-03 00:00:00.0000, -3.076578973476939E+08, 5.315096319059569E+07, 1.741126292071049E+07,
2459923.500000000, A.D. 2022-Dec-10 00:00:00.0000, -3.089157982950651E+08, 4.039006695856097E+07, 1.818745817296916E+07,
2459930.500000000, A.D. 2022-Dec-17 00:00:00.0000, -3.096804223797843E+08, 2.756468427421648E+07, 1.893460881649913E+07,
2459937.500000000, A.D. 2022-Dec-24 00:00:00.0000, -3.099477142179597E+08, 1.469504170179526E+07, 1.965134840682191E+07,
2459944.500000000, A.D. 2022-Dec-31 00:00:00.0000, -3.097145368657488E+08, 1.801677256129119E+06, 2.033635403824337E+07,
2459951.500000000, A.D. 2023-Jan-07 00:00:00.0000, -3.089786974591553E+08, -1.109460729128465E+07, 2.098835067561596E+07,
2459958.500000000, A.D. 2023-Jan-14 00:00:00.0000, -3.077389712022176E+08, -2.397279527001512E+07, 2.160611566661558E+07,
2459965.500000000, A.D. 2023-Jan-21 00:00:00.0000, -3.059951240812353E+08, -3.681170808745842E+07, 2.218848320446078E+07,
2459972.500000000, A.D. 2023-Jan-28 00:00:00.0000, -3.037479303914738E+08, -4.959006226655035E+07, 2.273434835900861E+07,
2459979.500000000, A.D. 2023-Feb-04 00:00:00.0000, -3.009991850513087E+08, -6.228652722846484E+07, 2.324267091292007E+07,
2459986.500000000, A.D. 2023-Feb-11 00:00:00.0000, -2.977517122849562E+08, -7.487978370356582E+07, 2.371247912082480E+07,
2459993.500000000, A.D. 2023-Feb-18 00:00:00.0000, -2.940093705619211E+08, -8.734858326407680E+07, 2.414287329957096E+07,
2460000.500000000, A.D. 2023-Feb-25 00:00:00.0000, -2.897770533954127E+08, -9.967180878498207E+07, 2.453302918389557E+07,
2460007.500000000, A.D. 2023-Mar-04 00:00:00.0000, -2.850606857958919E+08, -1.118285354373412E+08, 2.488220101312885E+07,
2460014.500000000, A.D. 2023-Mar-11 00:00:00.0000, -2.798672162850940E+08, -1.237980918233868E+08, 2.518972432138667E+07,
2460021.500000000, A.D. 2023-Mar-18 00:00:00.0000, -2.742046043980666E+08, -1.355601209050066E+08, 2.545501840005503E+07,
2460028.500000000, A.D. 2023-Mar-25 00:00:00.0000, -2.680818034875616E+08, -1.470946403712460E+08, 2.567758838993312E+07,
2460035.500000000, A.D. 2023-Apr-01 00:00:00.0000, -2.615087384672584E+08, -1.583821016503347E+08, 2.585702697914449E+07,
2460042.500000000, A.D. 2023-Apr-08 00:00:00.0000, -2.544962792122059E+08, -1.694034459450274E+08, 2.599301584928081E+07,
2460049.500000000, A.D. 2023-Apr-15 00:00:00.0000, -2.470562120973894E+08, -1.801401580123623E+08, 2.608532698250188E+07,
2460056.500000000, A.D. 2023-Apr-22 00:00:00.0000, -2.392012080523697E+08, -1.905743203729656E+08, 2.613382340637636E+07,
2460063.500000000, A.D. 2023-Apr-29 00:00:00.0000, -2.309447846243988E+08, -2.006886653488588E+08, 2.613845930550856E+07,
2460070.500000000, A.D. 2023-May-06 00:00:00.0000, -2.223012640669965E+08, -2.104666228198188E+08, 2.609927980534422E+07,
2460077.500000000, A.D. 2023-May-13 00:00:00.0000, -2.132857287106412E+08, -2.198923642915525E+08, 2.601642044517866E+07,
2460084.500000000, A.D. 2023-May-20 00:00:00.0000, -2.039139736850559E+08, -2.289508435073056E+08, 2.589010628250755E+07,
2460091.500000000, A.D. 2023-May-27 00:00:00.0000, -1.942024571319553E+08, -2.376278334200813E+08, 2.572065061803738E+07,
2460098.500000000, A.D. 2023-Jun-03 00:00:00.0000, -1.841682482121049E+08, -2.459099593298389E+08, 2.550845335418986E+07,
2460105.500000000, A.D. 2023-Jun-10 00:00:00.0000, -1.738289732649449E+08, -2.537847280657517E+08, 2.525399900428900E+07,
2460112.500000000, A.D. 2023-Jun-17 00:00:00.0000, -1.632027604244317E+08, -2.612405531729404E+08, 2.495785436192688E+07,
2460119.500000000, A.D. 2023-Jun-24 00:00:00.0000, -1.523081827648977E+08, -2.682667759785520E+08, 2.462066582862568E+07,
2460126.500000000, A.D. 2023-Jul-01 00:00:00.0000, -1.411642001079443E+08, -2.748536816713834E+08, 2.424315646643543E+07,
2460133.500000000, A.D. 2023-Jul-08 00:00:00.0000, -1.297901015304157E+08, -2.809925095741205E+08, 2.382612301786597E+07,
2460140.500000000, A.D. 2023-Jul-15 00:00:00.0000, -1.182054501995437E+08, -2.866754604895810E+08, 2.337043280245732E+07,
2460147.500000000, A.D. 2023-Jul-22 00:00:00.0000, -1.064300273573579E+08, -2.918957022607080E+08, 2.287702011047685E+07,
$$EOE